     2.01           GLONASS NAV DATA                        RINEX VERSION / TYPE
CCRINEXG V1.4 UX    CDDIS               16-MAY-20 19:33     PGM / RUN BY / DATE 
IGS BROADCAST EPHEMERIS FILE                                COMMENT             
teqc  2019Feb25     UNAVCO Archive Ops  20200516  0:31:     COMMENT             
  2020     5    15   -0.465661287308D-09                    CORR TO SYSTEM TIME 
    18                                                      LEAP SECONDS        
                                                            END OF HEADER       
 6 20  5 15 18 15  0.0 0.176616013050D-03 0.000000000000D+00 0.648000000000D+05
    0.224423593750D+05 0.148198890686D+01 0.931322574616D-09 0.000000000000D+00
   -0.547463378906D+04-0.138941764832D+00 0.931322574616D-09-0.400000000000D+01
   -0.108462373047D+05 0.313537406921D+01 0.186264514923D-08 0.000000000000D+00
 7 20  5 15 18 15  0.0-0.365404412150D-04-0.000000000000D+00 0.659400000000D+05
    0.806900000000D+04 0.300196361542D+01-0.000000000000D+00 0.000000000000D+00
   -0.103277646484D+05-0.170202255249D-01 0.931322574616D-09 0.500000000000D+01
   -0.218491684570D+05 0.111092281342D+01 0.186264514923D-08 0.000000000000D+00
 8 20  5 15 18 15  0.0-0.522211194038D-04-0.000000000000D+00 0.648000000000D+05
   -0.105180747070D+05 0.287350082398D+01-0.186264514923D-08 0.000000000000D+00
   -0.100697548828D+05 0.966424942017D-01 0.000000000000D+00 0.600000000000D+01
   -0.208809448242D+05-0.149089622498D+01 0.186264514923D-08 0.000000000000D+00
 9 20  5 15 18 15  0.0 0.132748857141D-03 0.181898940355D-11 0.648000000000D+05
    0.157298139648D+05-0.763731002808D+00 0.000000000000D+00 0.000000000000D+00
   -0.175126743164D+05 0.110035800934D+01 0.931322574616D-09-0.200000000000D+01
   -0.972662988281D+04-0.321860980987D+01 0.186264514923D-08 0.000000000000D+00
10 20  5 15 18 15  0.0-0.583492219448D-04 0.000000000000D+00 0.648000000000D+05
    0.111534599609D+05 0.922174453735D-01-0.000000000000D+00 0.000000000000D+00
   -0.227131708984D+05-0.496898651123D+00 0.000000000000D+00-0.700000000000D+01
    0.347628613281D+04-0.352548408508D+01 0.000000000000D+00 0.000000000000D+00
11 20  5 15 18 15  0.0-0.236742198467D-04-0.909494701773D-12 0.648000000000D+05
   -0.107384619141D+04 0.126896190643D+01-0.000000000000D+00 0.000000000000D+00
   -0.166706752930D+05-0.231217288971D+01-0.000000000000D+00 0.000000000000D+00
    0.192696596680D+05-0.193511772156D+01-0.931322574616D-09 0.000000000000D+00
12 20  5 15 18 15  0.0 0.130991451442D-03 0.363797880709D-11 0.648000000000D+05
   -0.114619697266D+05 0.159718322754D+01 0.000000000000D+00 0.000000000000D+00
   -0.175608300781D+04-0.266603946686D+01-0.931322574616D-09-0.100000000000D+01
    0.227416870117D+05 0.601560592651D+00-0.186264514923D-08 0.000000000000D+00
13 20  5 15 18 15  0.0-0.387215986848D-04-0.000000000000D+00 0.648000000000D+05
   -0.158372324219D+05 0.101737117767D+01 0.000000000000D+00 0.000000000000D+00
    0.150107626953D+05-0.150329113007D+01-0.931322574616D-09-0.200000000000D+01
    0.131951308594D+05 0.292653751373D+01-0.186264514923D-08 0.000000000000D+00
14 20  5 15 18 15  0.0 0.512376427650D-04 0.000000000000D+00 0.648000000000D+05
   -0.110215800781D+05-0.160075187683D+00 0.000000000000D+00 0.000000000000D+00
    0.226359550781D+05 0.565030097961D+00-0.000000000000D+00-0.700000000000D+01
   -0.414182226562D+04 0.350474739075D+01-0.000000000000D+00 0.000000000000D+00
15 20  5 15 18 15  0.0 0.106487423181D-03-0.000000000000D+00 0.648000000000D+05
    0.202992187500D+03-0.123205757141D+01 0.000000000000D+00 0.000000000000D+00
    0.172137426758D+05 0.226768207550D+01 0.000000000000D+00 0.000000000000D+00
   -0.188056865234D+05 0.206035518646D+01 0.931322574616D-09 0.000000000000D+00
16 20  5 15 18 15  0.0-0.353623181581D-05 0.000000000000D+00 0.648000000000D+05
    0.119755166016D+05-0.153398704529D+01 0.000000000000D+00 0.000000000000D+00
    0.931554199219D+03 0.266725063324D+01 0.931322574616D-09-0.100000000000D+01
   -0.225414863281D+05-0.694263458252D+00 0.186264514923D-08 0.000000000000D+00
17 20  5 15 18 15  0.0 0.325040891767D-03 0.272848410532D-11 0.648000000000D+05
    0.314428710938D+03-0.110974311829D+01 0.000000000000D+00 0.000000000000D+00
    0.177072724609D+05-0.226218891144D+01 0.000000000000D+00 0.400000000000D+01
   -0.183385195312D+05-0.220543861389D+01 0.931322574616D-09 0.000000000000D+00
18 20  5 15 18 15  0.0 0.354377552867D-04 0.909494701773D-12 0.648000000000D+05
    0.107578994141D+05-0.372457504273D-01 0.186264514923D-08 0.000000000000D+00
    0.228655737305D+05-0.559400558472D+00 0.931322574616D-09-0.300000000000D+01
   -0.369465625000D+04-0.355438709259D+01 0.000000000000D+00 0.000000000000D+00
19 20  5 15 18 15  0.0-0.934507697821D-04-0.909494701773D-12 0.648000000000D+05
    0.149304570312D+05 0.986918449402D+00 0.186264514923D-08 0.000000000000D+00
    0.164415273438D+05 0.142629718780D+01 0.000000000000D+00 0.300000000000D+01
    0.125464272461D+05-0.304243564606D+01-0.000000000000D+00 0.000000000000D+00
20 20  5 15 18 15  0.0-0.411773100495D-03-0.000000000000D+00 0.648000000000D+05
    0.107170781250D+05 0.149737644196D+01 0.186264514923D-08 0.000000000000D+00
   -0.169331542969D+04 0.278961467743D+01 0.000000000000D+00 0.200000000000D+01
    0.230932065430D+05-0.485967636108D+00-0.931322574616D-09 0.000000000000D+00
21 20  5 15 18 15  0.0-0.124702230096D-03-0.272848410532D-11 0.648000000000D+05
   -0.992670898438D+03 0.104942703247D+01-0.000000000000D+00 0.000000000000D+00
   -0.182952495117D+05 0.220153617859D+01-0.000000000000D+00 0.400000000000D+01
    0.177544731445D+05 0.232488441467D+01-0.931322574616D-09 0.000000000000D+00
22 20  5 15 18 15  0.0-0.137742608786D-05-0.272848410532D-11 0.648000000000D+05
   -0.117639887695D+05-0.133781433106D+00-0.186264514923D-08 0.000000000000D+00
   -0.225307578125D+05 0.246617317200D+00-0.000000000000D+00-0.300000000000D+01
    0.110735693359D+04 0.361362648010D+01-0.000000000000D+00 0.000000000000D+00
23 20  5 15 18 15  0.0 0.305678695440D-03 0.181898940355D-11 0.648000000000D+05
   -0.149140068359D+05-0.130898189545D+01-0.279396772385D-08 0.000000000000D+00
   -0.106438310547D+05-0.205665397644D+01-0.000000000000D+00 0.300000000000D+01
   -0.177544067383D+05 0.233441162109D+01 0.931322574616D-09 0.000000000000D+00
24 20  5 15 18 15  0.0-0.143982470036D-05 0.181898940355D-11 0.648000000000D+05
   -0.107509829102D+05-0.149070358276D+01-0.186264514923D-08 0.000000000000D+00
    0.275300244141D+04-0.277202892304D+01-0.000000000000D+00 0.200000000000D+01
   -0.229542089844D+05 0.364925384521D+00 0.931322574616D-09 0.000000000000D+00
26 20  5 15 18 15  0.0-0.395585782826D-03 0.181898940355D-11 0.648000000000D+05
    0.127051738281D+05 0.152118301392D+01 0.186264514923D-08 0.100000000000D+01
    0.268323144531D+04 0.259827136993D+01 0.000000000000D+00-0.600000000000D+01
    0.219589497070D+05-0.120013141632D+01-0.931322574616D-09 0.000000000000D+00
 1 20  5 15 18 45  0.0 0.615715980530D-04 0.000000000000D+00 0.666000000000D+05
   -0.191527954102D+05 0.218998050690D+01-0.279396772385D-08 0.000000000000D+00
   -0.514177929688D+04-0.205841064453D+00-0.000000000000D+00 0.100000000000D+01
   -0.160459838867D+05-0.254509067535D+01 0.931322574616D-09 0.000000000000D+00
 2 20  5 15 18 45  0.0 0.426807440817D-03 0.909494701773D-12 0.666000000000D+05
   -0.246982548828D+05-0.525419235229D+00-0.186264514923D-08 0.000000000000D+00
    0.481939599609D+04 0.225508689880D+00-0.931322574616D-09-0.400000000000D+01
    0.404473193359D+04-0.352165603638D+01-0.931322574616D-09 0.000000000000D+00
 3 20  5 15 18 45  0.0 0.150706619024D-04 0.909494701773D-12 0.666000000000D+05
   -0.135653662109D+05-0.253532886505D+01 0.000000000000D+00 0.000000000000D+00
    0.106847690430D+05 0.400161743164D+00-0.931322574616D-09 0.500000000000D+01
    0.188019628906D+05-0.206593990326D+01-0.186264514923D-08 0.000000000000D+00
 4 20  5 15 18 45  0.0 0.492464751005D-04 0.181898940355D-11 0.666300000000D+05
    0.509104003906D+04-0.310076713562D+01 0.186264514923D-08 0.000000000000D+00
    0.102012612305D+05 0.351818084717D+00 0.000000000000D+00 0.600000000000D+01
    0.228503417969D+05 0.534434318543D+00-0.186264514923D-08 0.000000000000D+00
 5 20  5 15 18 45  0.0 0.505205243826D-04 0.909494701773D-12 0.666000000000D+05
    0.209440239258D+05-0.191706848145D+01 0.186264514923D-08 0.000000000000D+00
    0.411296484375D+04 0.845651626587D-01 0.000000000000D+00 0.100000000000D+01
    0.139988847656D+05 0.284472560883D+01-0.000000000000D+00 0.000000000000D+00
 6 20  5 15 18 45  0.0 0.176616944373D-03 0.000000000000D+00 0.666000000000D+05
    0.243635888672D+05 0.637950897217D+00 0.186264514923D-08 0.000000000000D+00
   -0.584142431641D+04-0.229497909546D+00 0.931322574616D-09-0.400000000000D+01
   -0.485662158203D+04 0.347659683227D+01 0.931322574616D-09 0.000000000000D+00
 7 20  5 15 18 45  0.0-0.365413725376D-04-0.000000000000D+00 0.666000000000D+05
    0.131372407227D+05 0.258398151398D+01 0.000000000000D+00 0.000000000000D+00
   -0.107239169922D+05-0.402649879456D+00 0.931322574616D-09 0.500000000000D+01
   -0.190282690430D+05 0.200284099579D+01 0.186264514923D-08 0.000000000000D+00
 8 20  5 15 18 45  0.0-0.522229820490D-04-0.909494701773D-12 0.666000000000D+05
   -0.509021240234D+04 0.310703277588D+01-0.186264514923D-08 0.000000000000D+00
   -0.102914726562D+05-0.351972579956D+00 0.000000000000D+00 0.600000000000D+01
   -0.227176020508D+05-0.536464691162D+00 0.186264514923D-08 0.000000000000D+00
 9 20  5 15 18 45  0.0 0.132751651108D-03 0.181898940355D-11 0.666000000000D+05
    0.142127031250D+05-0.879417419434D+00 0.000000000000D+00 0.000000000000D+00
   -0.148276831055D+05 0.187281131744D+01 0.931322574616D-09-0.200000000000D+01
   -0.150672543945D+05-0.267675685883D+01 0.186264514923D-08 0.000000000000D+00
